{"type": "FeatureCollection", "features": [ {"type": "Feature", "properties": {"norad_id": 31412, "name": "FENGYUN 1C DEB", "group": "fengyun-1c-debris", "lat": 72.03160594173633, "lon": -93.18412202796961, "alt_km": 872.9925977073926, "timestamp": "2025-12-16T17:51:11.214024+00:00", "meta": {"OBJECT_NAME": "FENGYUN 1C DEB", "OBJECT_ID": "1999-025BSY", "EPOCH": "2025-12-14T19:31:01.164288", "MEAN_MOTION": 14.09854873, "ECCENTRICITY": 0.00835182, "INCLINATION": 98.5472, "RA_OF_ASC_NODE": 292.6091, "ARG_OF_PERICENTER": 329.7652, "MEAN_ANOMALY": 29.8714, "EPHEMERIS_TYPE": 0, "CLASSIFICATION_TYPE": "U", "NORAD_CAT_ID": 31412, "ELEMENT_SET_NO": 999, "REV_AT_EPOCH": 61021, "BSTAR": 0.0017478212, "MEAN_MOTION_DOT": 3.135e-05, "MEAN_MOTION_DDOT": 0}, "tle": {"line1": "1 31412U 99025BSY 25348.81320792  .00003135  00000+0  17478-2 0  9990", "line2": "2 31412  98.5472 292.6091 0083518 329.7652  29.8714 14.09854873610216"}}, "geometry": {"type": "Point", "coordinates": [-93.18412202796961, 72.03160594173633]}}, {"type": "Feature", "properties": {"norad_id": 31415, "name": "FENGYUN 1C DEB", "group": "fengyun-1c-debris", "lat": -45.96032960694192, "lon": 113.09792330393591, "alt_km": 840.3352222967942, "timestamp": "2025-12-16T17:51:11.214036+00:00", "meta": {"OBJECT_NAME": "FENGYUN 1C DEB", "OBJECT_ID": "1999-025BTB", "EPOCH": "2025-12-14T14:26:42.789696", "MEAN_MOTION": 14.30617484, "ECCENTRICITY": 0.00641277, "INCLINATION": 99.6387, "RA_OF_ASC_NODE": 300.8477, "ARG_OF_PERICENTER": 69.4394, "MEAN_ANOMALY": 291.365, "EPHEMERIS_TYPE": 0, "CLASSIFICATION_TYPE": "U", "NORAD_CAT_ID": 31415, "ELEMENT_SET_NO": 999, "REV_AT_EPOCH": 62857, "BSTAR": 0.0013058291, "MEAN_MOTION_DOT": 3.436e-05, "MEAN_MOTION_DDOT": 0}, "tle": {"line1": "1 31415U 99025BTB 25348.60188414  .00003436  00000+0  13058-2 0  9997", "line2": "2 31415  99.6387 300.8477 0064127  69.4394 291.3650 14.30617484628574"}}, "geometry": {"type": "Point", "coordinates": [113.09792330393591, -45.96032960694192]}}, {"type": "Feature", "properties": {"norad_id": 31416, "name": "FENGYUN 1C DEB", "group": "fengyun-1c-debris", "lat": 51.489251467798475, "lon": 29.64987836521681, "alt_km": 845.6611493176742, "timestamp": "2025-12-16T17:51:11.214047+00:00", "meta": {"OBJECT_NAME": "FENGYUN 1C DEB", "OBJECT_ID": "1999-025BTC", "EPOCH": "2025-12-15T09:56:07.740672", "MEAN_MOTION": 14.40678196, "ECCENTRICITY": 0.01329736, "INCLINATION": 99.0509, "RA_OF_ASC_NODE": 39.7986, "ARG_OF_PERICENTER": 243.0791, "MEAN_ANOMALY": 115.6759, "EPHEMERIS_TYPE": 0, "CLASSIFICATION_TYPE": "U", "NORAD_CAT_ID": 31416, "ELEMENT_SET_NO": 999, "REV_AT_EPOCH": 65558, "BSTAR": 0.00030879826, "MEAN_MOTION_DOT": 1.04e-05, "MEAN_MOTION_DDOT": 0}, "tle": {"line1": "1 31416U 99025BTC 25349.41397848  .00001040  00000+0  30880-3 0  9993", "line2": "2 31416  99.0509  39.7986 0132973 243.0791 115.6759 14.40678196655581"}}, "geometry": {"type": "Point", "coordinates": [29.64987836521681, 51.489251467798475]}}, {"type": "Feature", "properties": {"norad_id": 31420, "name": "FENGYUN 1C DEB", "group": "fengyun-1c-debris", "lat": -75.127143524026, "lon": 38.234874594718335, "alt_km": 711.7873298088862, "timestamp": "2025-12-16T17:51:11.214057+00:00", "meta": {"OBJECT_NAME": "FENGYUN 1C DEB", "OBJECT_ID": "1999-025BTG", "EPOCH": "2025-12-12T16:07:19.593120", "MEAN_MOTION": 14.4081029, "ECCENTRICITY": 0.01357889, "INCLINATION": 97.5578, "RA_OF_ASC_NODE": 244.6278, "ARG_OF_PERICENTER": 328.3513, "MEAN_ANOMALY": 60.6144, "EPHEMERIS_TYPE": 0, "CLASSIFICATION_TYPE": "U", "NORAD_CAT_ID": 31420, "ELEMENT_SET_NO": 999, "REV_AT_EPOCH": 64993, "BSTAR": 0.0010850472, "MEAN_MOTION_DOT": 3.836e-05, "MEAN_MOTION_DDOT": 0}, "tle": {"line1": "1 31420U 99025BTG 25346.67175455  .00003836  00000+0  10850-2 0  9990", "line2": "2 31420  97.5578 244.6278 0135788 328.3513  60.6144 14.40810290649934"}}, "geometry": {"type": "Point", "coordinates": [38.234874594718335, -75.127143524026]}}, {"type": "Feature", "properties": {"norad_id": 31422, "name": "FENGYUN 1C DEB", "group": "fengyun-1c-debris", "lat": 75.01106052088362, "lon": -47.57805390559603, "alt_km": 874.3127206571853, "timestamp": "2025-12-16T17:51:11.214067+00:00", "meta": {"OBJECT_NAME": "FENGYUN 1C DEB", "OBJECT_ID": "1999-025BTJ", "EPOCH": "2025-12-14T06:10:27.181920", "MEAN_MOTION": 14.09624109, "ECCENTRICITY": 0.003388, "INCLINATION": 98.7613, "RA_OF_ASC_NODE": 345.1705, "ARG_OF_PERICENTER": 296.6174, "MEAN_ANOMALY": 129.2856, "EPHEMERIS_TYPE": 0, "CLASSIFICATION_TYPE": "U", "NORAD_CAT_ID": 31422, "ELEMENT_SET_NO": 999, "REV_AT_EPOCH": 95683, "BSTAR": 0.00043847474, "MEAN_MOTION_DOT": 7.29e-06, "MEAN_MOTION_DDOT": 0}, "tle": {"line1": "1 31422U 99025BTJ 25348.25725905  .00000729  00000+0  43847-3 0  9990", "line2": "2 31422  98.7613 345.1705 0033880 296.6174 129.2856 14.09624109956830"}}, "geometry": {"type": "Point", "coordinates": [-47.57805390559603, 75.01106052088362]}}, {"type": "Feature", "properties": {"norad_id": 31423, "name": "FENGYUN 1C DEB", "group": "fengyun-1c-debris", "lat": 24.8575535730375, "lon": -32.54957942081655, "alt_km": 838.5228176331093, "timestamp": "2025-12-16T17:51:11.214077+00:00", "meta": {"OBJECT_NAME": "FENGYUN 1C DEB", "OBJECT_ID": "1999-025BTK", "EPOCH": "2025-12-15T09:40:13.935648", "MEAN_MOTION": 14.22973476, "ECCENTRICITY": 0.00362159, "INCLINATION": 98.5837, "RA_OF_ASC_NODE": 330.156, "ARG_OF_PERICENTER": 186.1739, "MEAN_ANOMALY": 173.8998, "EPHEMERIS_TYPE": 0, "CLASSIFICATION_TYPE": "U", "NORAD_CAT_ID": 31423, "ELEMENT_SET_NO": 999, "REV_AT_EPOCH": 97006, "BSTAR": 0.00015359645, "MEAN_MOTION_DOT": 3.05e-06, "MEAN_MOTION_DDOT": 0}, "tle": {"line1": "1 31423U 99025BTK 25349.40293907  .00000305  00000+0  15360-3 0  9990", "line2": "2 31423  98.5837 330.1560 0036215 186.1739 173.8998 14.22973476970067"}}, "geometry": {"type": "Point", "coordinates": [-32.54957942081655, 24.8575535730375]}}, {"type": "Feature", "properties": {"norad_id": 31424, "name": "FENGYUN 1C DEB", "group": "fengyun-1c-debris", "lat": -65.41255749147638, "lon": 53.53125486340791, "alt_km": 936.8033755653123, "timestamp": "2025-12-16T17:51:11.214089+00:00", "meta": {"OBJECT_NAME": "FENGYUN 1C DEB", "OBJECT_ID": "1999-025BTL", "EPOCH": "2025-12-15T09:46:37.838496", "MEAN_MOTION": 14.08361564, "ECCENTRICITY": 0.0094527, "INCLINATION": 98.4812, "RA_OF_ASC_NODE": 33.2428, "ARG_OF_PERICENTER": 97.8675, "MEAN_ANOMALY": 263.3238, "EPHEMERIS_TYPE": 0, "CLASSIFICATION_TYPE": "U", "NORAD_CAT_ID": 31424, "ELEMENT_SET_NO": 999, "REV_AT_EPOCH": 63208, "BSTAR": 0.00029708146, "MEAN_MOTION_DOT": 4.9e-06, "MEAN_MOTION_DDOT": 0}, "tle": {"line1": "1 31424U 99025BTL 25349.40738239  .00000490  00000+0  29708-3 0  9999", "line2": "2 31424  98.4812  33.2428 0094527  97.8675 263.3238 14.08361564632083"}}, "geometry": {"type": "Point", "coordinates": [53.53125486340791, -65.41255749147638]}}, {"type": "Feature", "properties": {"norad_id": 31426, "name": "FENGYUN 1C DEB", "group": "fengyun-1c-debris", "lat": -38.169203298297155, "lon": -38.7589266573977, "alt_km": 759.1320548969343, "timestamp": "2025-12-16T17:51:11.214099+00:00", "meta": {"OBJECT_NAME": "FENGYUN 1C DEB", "OBJECT_ID": "1999-025BTN", "EPOCH": "2025-12-14T09:40:59.882304", "MEAN_MOTION": 13.90090518, "ECCENTRICITY": 0.03247401, "INCLINATION": 98.5789, "RA_OF_ASC_NODE": 145.8922, "ARG_OF_PERICENTER": 181.4492, "MEAN_ANOMALY": 208.7888, "EPHEMERIS_TYPE": 0, "CLASSIFICATION_TYPE": "U", "NORAD_CAT_ID": 31426, "ELEMENT_SET_NO": 999, "REV_AT_EPOCH": 93596, "BSTAR": 0.0029295096, "MEAN_MOTION_DOT": 5.502e-05, "MEAN_MOTION_DDOT": 0}, "tle": {"line1": "1 31426U 99025BTN 25348.40347086  .00005502  00000+0  29295-2 0  9995", "line2": "2 31426  98.5789 145.8922 0324740 181.4492 208.7888 13.90090518935963"}}, "geometry": {"type": "Point", "coordinates": [-38.7589266573977, -38.169203298297155]}}, {"type": "Feature", "properties": {"norad_id": 31427, "name": "FENGYUN 1C DEB", "group": "fengyun-1c-debris", "lat": 58.44928878831704, "lon": 85.58348132219548, "alt_km": 678.3788205687788, "timestamp": "2025-12-16T17:51:11.214110+00:00", "meta": {"OBJECT_NAME": "FENGYUN 1C DEB", "OBJECT_ID": "1999-025BTP", "EPOCH": "2025-12-15T07:00:43.992576", "MEAN_MOTION": 14.58733343, "ECCENTRICITY": 0.00312384, "INCLINATION": 98.6707, "RA_OF_ASC_NODE": 98.4594, "ARG_OF_PERICENTER": 10.4603, "MEAN_ANOMALY": 349.7238, "EPHEMERIS_TYPE": 0, "CLASSIFICATION_TYPE": "U", "NORAD_CAT_ID": 31427, "ELEMENT_SET_NO": 999, "REV_AT_EPOCH": 96918, "BSTAR": 0.0014514686, "MEAN_MOTION_DOT": 6.775e-05, "MEAN_MOTION_DDOT": 0}, "tle": {"line1": "1 31427U 99025BTP 25349.29217584  .00006775  00000+0  14515-2 0  9995", "line2": "2 31427  98.6707  98.4594 0031238  10.4603 349.7238 14.58733343969186"}}, "geometry": {"type": "Point", "coordinates": [85.58348132219548, 58.44928878831704]}}, {"type": "Feature", "properties": {"norad_id": 31428, "name": "FENGYUN 1C DEB", "group": "fengyun-1c-debris", "lat": -78.62701639861504, "lon": 14.740634140596436, "alt_km": 791.2137613570085, "timestamp": "2025-12-16T17:51:11.214122+00:00", "meta": {"OBJECT_NAME": "FENGYUN 1C DEB", "OBJECT_ID": "1999-025BTQ", "EPOCH": "2025-12-15T04:14:39.082272", "MEAN_MOTION": 14.4202707, "ECCENTRICITY": 0.00639547, "INCLINATION": 99.0385, "RA_OF_ASC_NODE": 320.77, "ARG_OF_PERICENTER": 146.544, "MEAN_ANOMALY": 279.5294, "EPHEMERIS_TYPE": 0, "CLASSIFICATION_TYPE": "U", "NORAD_CAT_ID": 31428, "ELEMENT_SET_NO": 999, "REV_AT_EPOCH": 97545, "BSTAR": 0.0005596406, "MEAN_MOTION_DOT": 1.833e-05, "MEAN_MOTION_DDOT": 0}, "tle": {"line1": "1 31428U 99025BTQ 25349.17684123  .00001833  00000+0  55964-3 0  9994", "line2": "2 31428  99.0385 320.7700 0063954 146.5440 279.5294 14.42027070975459"}}, "geometry": {"type": "Point", "coordinates": [14.740634140596436, -78.62701639861504]}}]}